[{"OBJECT_NAME":"STARLINK-31542","OBJECT_ID":"2024-045S","EPOCH":"2026-03-09T11:29:25.435104","MEAN_MOTION":15.27560483,"ECCENTRICITY":0.00012658,"INCLINATION":43.0024,"RA_OF_ASC_NODE":93.3421,"ARG_OF_PERICENTER":268.1619,"MEAN_ANOMALY":91.9087,"EPHEMERIS_TYPE":0,"CLASSIFICATION_TYPE":"U","NORAD_CAT_ID":59194,"ELEMENT_SET_NO":999,"REV_AT_EPOCH":11313,"BSTAR":-1.5162934e-5,"MEAN_MOTION_DOT":-6.79e-6,"MEAN_MOTION_DDOT":0},{"OBJECT_NAME":"FLOCK 4G-26","OBJECT_ID":"2025-009AA","EPOCH":"2026-03-09T19:19:02.910720","MEAN_MOTION":15.27281631,"ECCENTRICITY":0.0001988,"INCLINATION":97.4054,"RA_OF_ASC_NODE":151.3913,"ARG_OF_PERICENTER":299.1273,"MEAN_ANOMALY":60.9767,"EPHEMERIS_TYPE":0,"CLASSIFICATION_TYPE":"U","NORAD_CAT_ID":62633,"ELEMENT_SET_NO":999,"REV_AT_EPOCH":6373,"BSTAR":0.00042468806,"MEAN_MOTION_DOT":0.00011283,"MEAN_MOTION_DDOT":0}]
